ONEWEB-0094             
1 45450U 20020AC  24361.57726784  .00000089  00000+0  19696-3 0  9994
2 45450  87.9104 112.9427 0001639 100.6786 259.4530 13.17651215235518
ONEWEB-0087             
1 45451U 20020AD  24361.59680732  .00000153  00000+0  39602-3 0  9990
2 45451  87.8900 128.1508 0001387  92.8538 267.2749 13.11416797232129
ONEWEB-0082             
1 45452U 20020AE  24361.59357219  .00000278  00000+0  74936-3 0  9999
2 45452  87.8905 128.1644 0001355 102.8062 257.3217 13.11415196232217
ONEWEB-0050             
1 45453U 20020AF  24361.46044882  .00006377  00000+0  61482-3 0  9993
2 45453  88.0015 339.3670 0005531  98.6340 261.5516 14.92771414260273
ONEWEB-0034             
1 45454U 20020AG  24361.38670069 -.00000455  00000+0 -13197-2 0  9999
2 45454  87.8906 128.2248 0001492 102.2759 257.8536 13.11417617232107
ONEWEB-0060             
1 45455U 20020AH  24361.35295721  .00000570  00000+0  15715-2 0  9999
2 45455  87.8906 128.2531 0001684 100.1637 259.9681 13.11416898232056
ONEWEB-0086             
1 45456U 20020AJ  24361.41212052 -.00007604  00000+0 -21495-1 0  9991
2 45456  87.8903 128.2195 0001133  78.5033 281.6222 13.11458990232127
ONEWEB-0088             
1 45457U 20020AK  24361.39009586 -.00000455  00000+0 -13183-2 0  9998
2 45457  87.8898 128.1806 0001526  97.0057 263.1245 13.11418757232056
